[{"OBJECT_NAME":"STARLINK-33721","OBJECT_ID":"2025-070W","EPOCH":"2026-03-09T22:02:53.748096","MEAN_MOTION":15.27605372,"ECCENTRICITY":0.00052195,"INCLINATION":43.0036,"RA_OF_ASC_NODE":254.8336,"ARG_OF_PERICENTER":271.6402,"MEAN_ANOMALY":88.3852,"EPHEMERIS_TYPE":0,"CLASSIFICATION_TYPE":"U","NORAD_CAT_ID":63480,"ELEMENT_SET_NO":999,"REV_AT_EPOCH":5305,"BSTAR":0.0014101908,"MEAN_MOTION_DOT":0.00038789,"MEAN_MOTION_DDOT":0},{"OBJECT_NAME":"PELICAN-6","OBJECT_ID":"2025-276AP","EPOCH":"2026-03-09T16:58:12.890496","MEAN_MOTION":15.2637798,"ECCENTRICITY":0.0003569,"INCLINATION":97.4276,"RA_OF_ASC_NODE":144.2072,"ARG_OF_PERICENTER":157.8575,"MEAN_ANOMALY":202.2819,"EPHEMERIS_TYPE":0,"CLASSIFICATION_TYPE":"U","NORAD_CAT_ID":66703,"ELEMENT_SET_NO":999,"REV_AT_EPOCH":1533,"BSTAR":0.0029725783,"MEAN_MOTION_DOT":0.00077979,"MEAN_MOTION_DDOT":0}]
